#dP2023  3 11  0  0  0.00000000      96 __u+U ITR00 EXT  IAC
## 2252 518400.00000000   900.00000000 60014 0.0000000000000
+  118   C06C07C08C09C10C11C12C13C14C16C19C20C21C22C23C24C25
+        C26C27C28C29C30C32C33C34C35C36C37C38C39C40C41C42C43
+        C44C45C46E01E02E03E04E05E07E08E09E10E11E12E14E15E18
+        E19E21E24E25E26E27E30E31E33E34E36G01G02G03G04G05G06
+        G08G09G10G11G12G13G14G15G16G17G18G19G20G21G22G23G24
+        G25G26G27G28G29G30G31G32J02J03J04R01R02R03R04R05R07
+        R08R09R11R12R13R14R15R16R17R18R19R20R21R22R24R25  0
++         9 10 11  9  9  8  8 11  8  9  7  9  7  8  9  9  9
++         7  9  8 10  9 10  9 10  8  9  8  8  9 10  7  8  8
++         9  8  9  6  7  7  7  8  7  6  7  8  7  8  7  6  7
++         7  8  7  8  7  7  7  7  8  7  7  7  8  7  8  7  7
++         7  7  7  7  7  8  6  7  8  7  7  7  8  8  7  7  7
++         7  8  7  8  9  7  7  7  8 10 10  6  7  7  7  7  6
++         9  9  7  7  9  6  8  7  7  8  9 10  8  8  8  7  0
%c M  cc GPS ccc cccc cccc cccc cccc ccccc ccccc ccccc ccccc
%c cc cc ccc ccc cccc cccc cccc cccc ccccc ccccc ccccc ccccc
%f  0.0000000  0.000000000  0.00000000000  0.000000000000000
%f  0.0000000  0.000000000  0.00000000000  0.000000000000000
%i    0    0    0    0      0      0      0      0         0
%i    0    0    0    0      0      0      0      0         0
/* IAC                                ULTRA-RAPID PREDICTION
/* S/V CLOCKS ARE ALIGNED TO GNSS TIME                      
/* G:C1WC2W R:C1PC2P E:C1XC5X C:C2IC6I J:C1CC2S             
/* PCV:IGS20_2247 OL/AL:FES2004  NONE     YN ORB:CoN CLK:CoN
*  2023 03 11  0 30  0.00000000
PC06 -13742.403951  23590.173184  32084.678408   -195.226024
PC07 -13913.883843  39875.763154  -1211.495632     -2.078348
PC08   1421.987785  30756.757641 -28704.618434    520.024408
PC09  -3101.019129  24554.637717  34513.768915    895.631847
PC10  -8465.846589  40867.935283  -7373.345224     -6.335016
PC11 -27421.048780   2132.237723   4831.013381    698.887839
PC12 -17726.086818  -9419.872361  19421.901522    498.976288
PC13   6276.672588  33860.005661 -23984.813229    226.571960
PC14 -16902.593879   4229.944587 -21788.028143    574.736679
PC16 -16066.039107  22805.297072  31744.155059    141.919517
PC19  16619.769436 -14469.229847  17140.178927   -895.549171
PC20  14951.929963   4904.945633  23064.480995    685.813101
PC21  -4073.448492 -22829.057454 -15484.867391   -908.854500
PC22   8796.631496 -26450.286599    980.195402   -592.407677
PC23  -3384.967458  18339.984687  20754.238675   -886.506175
PC24 -22098.225075 -14797.403442   8479.873139   -310.852702
PC25 -17543.169014   3971.340941  21328.523895     85.526571
PC26 -14521.210810 -22641.607163  -7519.659152    -90.074811
PC27   9337.863784  13863.247457 -22369.393548    108.660128
PC28 -10539.155995  16455.990724 -19918.216339     79.528011
PC29  25578.308592 -10083.330837   4795.221345     91.794529
PC30  24517.371284   3026.986666 -13014.360130      0.907390
PC32   4235.321615  22860.158665  15464.430790   -602.632846
PC33 -16548.679979  14530.694847 -17139.177642   -870.931921
PC34 -25101.573572  -2192.944786  11951.783626    123.736608
PC35  11118.278532 -16805.007768  19314.302993    666.726125
PC36  18018.296262  -2904.014775 -21092.270278   -572.949641
PC37  12946.905524  23107.989253   8750.639517   -805.101059
PC38  -6696.583553  26435.008731 -32073.467472     64.129342
PC39 -22274.351694  22155.899542  28052.356342     -2.118459
PC40 -20217.577631  37127.225090    871.954461    -17.209641
PC41  -9027.632589  26362.219436  -1519.046852   -708.035135
PC42 -14523.324104  -6293.161840 -22932.604064   -793.975622
PC43 -25882.966468   9584.998441  -4027.783722     11.128338
PC44  -9609.779744 -13727.529484  22295.924383     40.308689
PC45   2899.898708 -18542.920728 -20666.311787    -70.570811
PC46  22247.924780  13479.970886 -10056.426278    -38.972801
PE01 -15678.004198 -18276.729070  17215.360683    -17.397076
PE02  15827.807655  17804.093610 -17564.497764     25.574755
PE03  17706.559295   5864.164167  22982.672898   -657.907194
PE04 -24839.572139  11603.874504 -11147.793198    -75.634096
PE05    -22.998569  20289.873885  21558.120650    -87.684612
PE07  17601.412073 -22610.195110  -7403.380304    -28.917211
PE08  24770.028238 -11532.672948  11377.448060    -49.042254
PE09 -17714.107060  22580.992301   7275.430919   -864.388909
PE10 -20658.650326   6847.001630 -20065.503602   -518.156661
PE11 -10599.193618  13095.236249 -24342.300885   1196.445457
PE12 -26557.786530    136.506137 -13044.118117   -453.070164
PE14  22998.308837  -1376.335151 -14476.196121    164.773604
PE15  26713.955820    103.596916  12771.199182     -6.571874
PE18 -25841.824801  15863.225079   1662.096103   -298.191918
PE19 -15653.823539  -8167.546786 -23746.836844  -3039.958413
PE21  -6860.728595 -28761.200601   1469.480792   -516.772255
PE24  -7259.333136  23167.544357  16894.301932  -1158.171772
PE25   6657.150796  28812.660961  -1163.476419   -601.060560
PE26 -11052.018889 -17928.330031  20801.940518     41.757601
PE27   6626.768656 -23773.506827 -16358.691263   -531.675039
PE30  16312.526757  -4079.092063 -24376.834437  -1306.959377
PE31 -16082.528142   4818.480236  24377.712957   -518.202320
PE33 -26036.447008 -12662.520379   6123.818130   -449.646627
PE34  26143.998234  12536.935459  -5962.815411    -34.236710
PE36  10295.145874  17781.775939 -21309.032763    -24.307848
PG01  21010.812536  14536.982193  -8220.309903    204.067865
PG02 -23223.472464 -11402.075537   6027.358933   -615.257877
PG03  12513.426112  18507.193883  14332.036323   -351.899935
PG04  14563.466678   7393.330616  20975.860931     -9.926559
PG05  -5210.464715 -25976.970219   -200.825277   -118.982147
PG06  14798.607894  -8517.099036  20438.408625    580.221195
PG08   3744.030466  15946.051825 -20891.985230   -112.328745
PG09  21199.808154  -3249.517645  15623.075389   -203.090999
PG10 -11952.963582  12032.567295 -20178.037146    -28.032407
PG11    529.001419 -15933.870048  21259.174279   -126.661738
PG12 -10374.476752 -20815.031418  12634.088024   -349.991655
PG13   5141.287442 -18064.086028 -18875.749185    488.553350
PG14  13906.195384  -9013.598247 -20724.140308     -7.260351
PG15  -6349.647160 -15747.526266 -20825.273761     20.451082
PG16    312.568586  26221.626245   1780.896189   -516.110084
PG17  22820.567141 -13174.570420  -3310.381017    704.762425
PG18 -24755.137335  -3567.035620  -9150.818794   -174.294305
PG19  19314.801976 -16947.958082   5881.950012    288.360044
PG20    191.093354 -24419.802301  10727.749984    445.802711
PG21  16064.683485  15389.860590 -14530.814032    154.305552
PG22 -16253.911466  18813.980821   9537.919500    442.798563
PG23 -15234.790244   -985.472810 -21741.736979      9.959083
PG24 -18764.408826 -14968.304612 -12164.855176   -106.614948
PG25 -15103.862275 -11302.410426  18491.786494    426.670742
PG26  -6367.084336  21103.378506  14454.592531    241.934308
PG27  -7567.011060  19938.417220 -15797.986768     83.912213
PG28 -16416.969226   8320.921009  19116.546136     39.471589
PG29 -19568.788118  -1326.519400  17895.407999   -590.226864
PG30  21276.000025  -3700.999517 -15531.503300   -527.395675
PG31 -12620.504987  10614.206009  20741.598036   -211.291644
PG32 -21093.645932  15893.003524  -1278.605856   -419.806163
PJ02 -27172.717903  24625.240399  25820.362617     -1.151925
PJ03 -33018.344569  16606.512188 -15683.301209      0.840543
PJ04 -21330.239557  33107.639018  -9848.621886     94.164315
PR01   5870.682668 -22767.015361  -9871.593262     24.520240
PR02  -5651.195190 -11419.086956 -22060.904212    -23.166106
PR03 -13995.283501   6001.248447 -20395.705290     73.937953
PR04 -14374.673849  19668.499609  -7508.565342    178.890418
PR05  -7035.215970  22600.452223   9492.916798    109.089343
PR07  14265.122872  -6819.606037  20077.439201     51.483039
PR08  14317.450481 -19795.211155   7452.835727    -69.825075
PR09  15879.112002  19479.467845  -4582.816585    108.444321
PR11   7200.090355  -8766.954817 -22839.643501    -16.348915
PR12  -6376.621064 -21139.278468 -12771.431735     25.566265
PR13 -15101.120983 -20366.529133   2802.227939    -32.843185
PR14 -15530.647843  -6869.535599  19032.475188     24.409281
PR15  -6617.841035   9803.836029  22612.385907     90.544568
PR16   6368.050017  20936.111686  13135.302339     12.207874
PR17 -25486.544336    346.161044   1360.484839    611.555997
PR18 -19622.012673   7118.156131 -14604.587364     70.817436
PR19  -5445.878519  10107.441966 -22777.000352   -224.821660
PR20  16460.011890   7923.464792 -17818.921468    -89.122042
PR21  25477.298924   -974.780294    393.018794   -379.385795
PR22  19277.941746  -7014.191149  15199.961236     74.365731
PR24 -17207.918620  -7556.824523  17266.606236    152.762597
PR25  25430.846665    992.051641  -1604.132563     57.377583
EOF
